GLOBALSTAR M094 [+]     
1 39074U 13005C   24046.87815107 -.00000088  00000+0  89446-4 0  9996
2 39074  51.9932 225.8290 0000719  88.3460 271.7488 12.62263102510837
GLOBALSTAR M096 [+]     
1 39075U 13005D   24046.89148137 -.00000086  00000+0  10115-3 0  9995
2 39075  52.0061 273.9258 0000528  65.9636 294.1286 12.62272720509755
GLOBALSTAR M078 [+]     
1 39076U 13005E   24046.54861287  .00000012  00000+0  64666-3 0  9994
2 39076  51.9898   0.1411 0000985 154.2242 205.8674 12.62260970508332
GLOBALSTAR M095 [+]     
1 39077U 13005F   24046.89128878 -.00000088  00000+0  88093-4 0  9990
2 39077  51.9829 356.5334 0000355 184.1569 175.9294 12.62263164508236
GLOBALSTAR M087 [+]     
1 52888U 22064A   24046.93660916 -.00000080  00000+0  91269-4 0  9990
2 52888  51.9745 274.6634 0010212  56.2975 303.8897 13.37565361 81160
